{
    "links": {
        "self": "http://www.neowsapp.com/rest/v1/neo/3607965?api_key=iIulBulltgU6a56xZRHN4H3l9WmuAYTsLGpBGhQ2"
    },
    "id": "3607965",
    "neo_reference_id": "3607965",
    "name": "(2012 QD18)",
    "designation": "2012 QD18",
    "nasa_jpl_url": "http://ssd.jpl.nasa.gov/sbdb.cgi?sstr=3607965",
    "absolute_magnitude_h": 26.0,
    "estimated_diameter": {
        "kilometers": {
            "estimated_diameter_min": 0.0167708462,
            "estimated_diameter_max": 0.0375007522
        },
        "meters": {
            "estimated_diameter_min": 16.7708462163,
            "estimated_diameter_max": 37.5007521798
        },
        "miles": {
            "estimated_diameter_min": 0.0104209175,
            "estimated_diameter_max": 0.0233018799
        },
        "feet": {
            "estimated_diameter_min": 55.0224631002,
            "estimated_diameter_max": 123.0339677816
        }
    },
    "is_potentially_hazardous_asteroid": false,
    "close_approach_data": [
        {
            "close_approach_date": "2012-08-20",
            "close_approach_date_full": "2012-Aug-20 10:00",
            "epoch_date_close_approach": 1345456800000,
            "relative_velocity": {
                "kilometers_per_second": "8.9594987682",
                "kilometers_per_hour": "32254.1955656512",
                "miles_per_hour": "20041.5027946681"
            },
            "miss_distance": {
                "astronomical": "0.0292586115",
                "lunar": "11.3815998735",
                "kilometers": "4377025.959557505",
                "miles": "2719757.814423369"
            },
            "orbiting_body": "Earth"
        }
    ],
    "orbital_data": {
        "orbit_id": "4",
        "orbit_determination_date": "2017-04-06 08:49:08",
        "first_observation_date": "2012-08-26",
        "last_observation_date": "2012-08-27",
        "data_arc_in_days": 1,
        "observations_used": 18,
        "orbit_uncertainty": "8",
        "minimum_orbit_intersection": ".0264896",
        "jupiter_tisserand_invariant": "3.986",
        "epoch_osculation": "2456166.5",
        "eccentricity": ".4350582183487071",
        "semi_major_axis": "1.764651680244626",
        "inclination": "8.414727224787585",
        "ascending_node_longitude": "153.0046106167029",
        "orbital_period": "856.2230554125006",
        "perihelion_distance": ".9969254642313466",
        "perihelion_argument": "145.8344998870255",
        "aphelion_distance": "2.532377896257905",
        "perihelion_time": "2456135.641959712757",
        "mean_anomaly": "12.97429966780744",
        "mean_motion": ".4204511870175741",
        "equinox": "J2000",
        "orbit_class": {
            "orbit_class_type": "APO",
            "orbit_class_description": "Near-Earth asteroid orbits which cross the Earth’s orbit similar to that of 1862 Apollo",
            "orbit_class_range": "a (semi-major axis) > 1.0 AU; q (perihelion) < 1.017 AU"
        }
    },
    "is_sentry_object": false
}